[{"OBJECT_NAME":"IRIDIUM 142","OBJECT_ID":"2018-030H","EPOCH":"2026-03-09T19:54:27.398592","MEAN_MOTION":14.34217645,"ECCENTRICITY":0.000204,"INCLINATION":86.4006,"RA_OF_ASC_NODE":331.9079,"ARG_OF_PERICENTER":94.7375,"MEAN_ANOMALY":265.4053,"EPHEMERIS_TYPE":0,"CLASSIFICATION_TYPE":"U","NORAD_CAT_ID":43256,"ELEMENT_SET_NO":999,"REV_AT_EPOCH":41589,"BSTAR":-2.157633e-6,"MEAN_MOTION_DOT":1.4e-7,"MEAN_MOTION_DDOT":0},{"OBJECT_NAME":"FENGYUN 1C DEB","OBJECT_ID":"1999-025EYG","EPOCH":"2026-03-09T18:19:25.843584","MEAN_MOTION":14.25803717,"ECCENTRICITY":0.00522752,"INCLINATION":98.7341,"RA_OF_ASC_NODE":142.6869,"ARG_OF_PERICENTER":326.4084,"MEAN_ANOMALY":33.3785,"EPHEMERIS_TYPE":0,"CLASSIFICATION_TYPE":"U","NORAD_CAT_ID":41829,"ELEMENT_SET_NO":999,"REV_AT_EPOCH":48547,"BSTAR":0.0015429453,"MEAN_MOTION_DOT":3.677e-5,"MEAN_MOTION_DDOT":0}]
